[{"OBJECT_NAME":"YAOGAN-36 02B","OBJECT_ID":"2022-133B","EPOCH":"2026-03-09T22:42:31.775904","MEAN_MOTION":15.30199518,"ECCENTRICITY":0.00056841,"INCLINATION":34.9983,"RA_OF_ASC_NODE":22.5268,"ARG_OF_PERICENTER":273.0351,"MEAN_ANOMALY":86.9715,"EPHEMERIS_TYPE":0,"CLASSIFICATION_TYPE":"U","NORAD_CAT_ID":54043,"ELEMENT_SET_NO":999,"REV_AT_EPOCH":18962,"BSTAR":0.00051218814,"MEAN_MOTION_DOT":0.00015352,"MEAN_MOTION_DDOT":0},{"OBJECT_NAME":"STARLINK-32166","OBJECT_ID":"2024-131C","EPOCH":"2026-03-09T22:47:06.801792","MEAN_MOTION":15.30194154,"ECCENTRICITY":0.00012235,"INCLINATION":53.161,"RA_OF_ASC_NODE":51.5597,"ARG_OF_PERICENTER":104.918,"MEAN_ANOMALY":255.1956,"EPHEMERIS_TYPE":0,"CLASSIFICATION_TYPE":"U","NORAD_CAT_ID":60257,"ELEMENT_SET_NO":999,"REV_AT_EPOCH":9175,"BSTAR":0.00033869595,"MEAN_MOTION_DOT":9.683e-5,"MEAN_MOTION_DDOT":0}]
